1 45073U 20006AF  23001.49253395 -.00003586  00000-0 -22197-3 0  9991
2 45073  53.0545  88.4126 0001600  51.3035 308.8097 15.06397373161418
1 45073U 20006AF  23001.69157776 -.00001659  00000-0 -92537-4 0  9994
2 45073  53.0550  87.5174 0001739  47.9019 312.2118 15.06390617161443
1 45073U 20006AF  23002.55408737  .00016653  00000-0  11338-2 0  9992
2 45073  53.0550  83.6480 0002030  40.1747 319.9392 15.06412897161575
1 45073U 20006AF  23002.68678315  .00005342  00000-0  37724-3 0  9998
2 45073  53.0543  83.0539 0002028  41.4272 318.6870 15.06399249161594
1 45073U 20006AF  23003.48294610  .00002764  00000-0  20442-3 0  9993
2 45073  53.0558  79.4766 0002116  43.4309 316.6846 15.06399922161715
1 45073U 20006AF  23004.47814674  .00005726  00000-0  40284-3 0  9998
2 45073  53.0551  75.0106 0002166  43.9542 316.1619 15.06411859161860
1 45073U 20006AF  23004.87622298  .00009677  00000-0  66726-3 0  9999
2 45073  53.0552  73.2237 0002206  43.4404 316.6759 15.06421326161920
1 45073U 20006AF  23005.53968301  .00005221  00000-0  36891-3 0  9992
2 45073  53.0550  70.2452 0002239  43.7780 316.3386 15.06422450162361
1 45073U 20006AF  23005.60602898  .00004349  00000-0  31052-3 0  9990
2 45073  53.0551  69.9477 0002235  43.8406 316.2760 15.06421907162031
1 45073U 20006AF  23006.53488536 -.00003936  00000-0 -24548-3 0  9999
2 45073  53.0557  65.7771 0002156  35.4086 324.7046 15.06398368162171
1 45073U 20006AF  23006.99932353 -.00006975  00000-0 -45001-3 0  9993
2 45073  53.0547  63.6912 0002164  40.7083 319.4067 15.06379189162241
1 45073U 20006AF  23007.86184282 -.00001122  00000-0 -56459-4 0  9999
2 45073  53.0551  59.8209 0002251  46.0368 314.0806 15.06385706162372
1 45073U 20006AF  23008.39262346  .00001139  00000-0  95380-4 0  9998
2 45073  53.0550  57.4383 0002280  47.4072 312.7109 15.06386173162456
1 45073U 20006AF  23008.85705405  .00004080  00000-0  29273-3 0  9992
2 45073  53.0551  55.3538 0002195  47.3752 312.7422 15.06391312162522
1 45073U 20006AF  23009.18879189  .00006025  00000-0  42309-3 0  9996
2 45073  53.0548  53.8649 0002322  48.6446 311.4742 15.06394828162571
1 45073U 20006AF  23010.51572678  .00002623  00000-0  19493-3 0  9996
2 45073  53.0552  47.9067 0002170  54.6374 305.4818 15.06401352162772
1 45073U 20006AF  23011.37823612  .00002386  00000-0  17900-3 0  9995
2 45073  53.0552  44.0358 0002240  56.0068 304.1134 15.06404132162908
1 45073U 20006AF  23011.77632049  .00001842  00000-0  14258-3 0  9990
2 45073  53.0548  42.2493 0002152  59.9188 300.2014 15.06396460162964
1 45073U 20006AF  23012.77152515  .00001511  00000-0  12035-3 0  9990
2 45073  53.0552  37.7820 0002107  68.3751 291.7462 15.06394579163110
1 45073U 20006AF  23013.36864587  .00002335  00000-0  17560-3 0  9998
2 45073  53.0552  35.1009 0002106  70.4814 289.6402 15.06401322163209
1 45073U 20006AF  23013.76672836  .00001864  00000-0  14404-3 0  9996
2 45073  53.0552  33.3154 0002116  76.5562 283.5663 15.06399015163261
1 45073U 20006AF  23015.42539957  .00003290  00000-0  23962-3 0  9991
2 45073  53.0546  25.8687 0002211  81.2279 278.8961 15.06404528163517
1 45073U 20006AF  23015.75713461  .00002312  00000-0  17406-3 0  9991
2 45073  53.0544  24.3793 0002198  84.7084 275.4155 15.06401574163564
1 45073U 20006AF  23016.42059166  .00009785  00000-0  67440-3 0  9995
2 45073  53.0565  21.3974 0002200  92.9930 267.1310 15.06424992163661
1 45073U 20006AF  23017.28312013 -.00007022  00000-0 -45328-3 0  9998
2 45073  53.0558  17.5300 0002104  84.1950 275.9279 15.06374737163797
1 45073U 20006AF  23017.68120226  .00002274  00000-0  17154-3 0  9993
2 45073  53.0556  15.7416 0002046  82.9548 277.1674 15.06390989163854
1 45073U 20006AF  23018.21197779  .00031535  00000-0  21251-2 0  9994
2 45073  53.0559  13.3595 0002097  82.6504 277.4723 15.06423658163931
1 45073U 20006AF  23019.40620621  .00018457  00000-0  12536-2 0  9997
2 45073  53.0545   7.9971 0001787  89.0974 271.0220 15.06433610164112
1 45073U 20006AF  23020.46778879  .00016183  00000-0  11046-2 0  9993
2 45073  53.0557   3.2310 0001796  94.2658 265.8536 15.06339521164272
1 45073U 20006AF  23025.57647971  .00012066  00000-0  82746-3 0  9990
2 45073  53.0555 340.2992 0001262  94.6596 265.4537 15.06402600165045
1 45073U 20006AF  23026.10725752  .00002643  00000-0  19630-3 0  9996
2 45073  53.0560 337.9176 0001480  94.7386 265.3772 15.06395103165126
1 45073U 20006AF  23027.23515129  .00006007  00000-0  42171-3 0  9990
2 45073  53.0564 332.8515 0001653  85.5010 274.6168 15.06408474165639
1 45073U 20006AF  23028.23035546  .00003466  00000-0  25143-3 0  9997
2 45073  53.0554 328.3817 0001413 101.8748 258.2399 15.06402402165782
1 45073U 20006AF  23028.82748073 -.00000317  00000-0 -23845-5 0  9991
2 45073  53.0552 325.7054 0001194  86.0567 274.0558 15.06393180165531
1 45073U 20006AF  23029.82268602  .00004139  00000-0  29660-3 0  9990
2 45073  53.0547 321.2375 0001184  86.6441 273.4684 15.06400024165683
1 45073U 20006AF  23030.22076375  .00005293  00000-0  37387-3 0  9997
2 45073  53.0544 319.4493 0001316  91.9797 268.1343 15.06407890165748
1 45073U 20006AF  23030.88423442  .00000857  00000-0  76430-4 0  9994
2 45073  53.0548 316.4699 0001358  89.9905 270.1239 15.06397751165843
1 45073U 20006AF  23031.54769834  .00001396  00000-0  11255-3 0  9998
2 45073  53.0540 313.4916 0001279 100.1436 259.9697 15.06403250165947
1 45073U 20006AF  23031.87943307  .00000809  00000-0  73220-4 0  9992
2 45073  53.0542 312.0028 0001301 102.8405 257.2729 15.06401590165996
1 45073U 20006AF  23032.14481770  .00002418  00000-0  18116-3 0  9994
2 45073  53.0543 310.8118 0001238  98.8635 261.2494 15.06407124166030
1 45073U 20006AF  23033.14002438  .00000146  00000-0  28689-4 0  9998
2 45073  53.0546 306.3439 0001258  92.1075 268.0058 15.06399940166189
1 45073U 20006AF  23034.13522121  .00003664  00000-0  26468-3 0  9994
2 45073  53.0539 301.8766 0001379  89.2055 270.9092 15.06410283166334
1 45073U 20006AF  23034.73235043  .00000816  00000-0  73677-4 0  9995
2 45073  53.0538 299.1972 0001217  84.3816 275.7312 15.06396534166423
1 45073U 20006AF  23035.13042913  .00002007  00000-0  15355-3 0  9994
2 45073  53.0537 297.4090 0001269  96.3033 263.8100 15.06401250166486
1 45073U 20006AF  23035.92659245  .00001010  00000-0  86672-4 0  9997
2 45073  53.0531 293.8350 0001248  94.5203 265.5929 15.06399659166943
1 45073U 20006AF  23036.12563097  .00001277  00000-0  10460-3 0  9995
2 45073  53.0525 292.9420 0001401  91.7534 268.3615 15.06404032166632
1 45073U 20006AF  23036.92179875  .00001632  00000-0  12846-3 0  9995
2 45073  53.0529 289.3670 0001207  98.4866 261.6260 15.06396331166756
1 45073U 20006AF  23037.12083657  .00002912  00000-0  21427-3 0  9997
2 45073  53.0529 288.4735 0001181  96.7589 263.3534 15.06402370166789
1 45073U 20006AF  23037.91699229  .00006254  00000-0  43816-3 0  9991
2 45073  53.0525 284.8992 0001164 103.4869 256.6249 15.06415500166909
1 45073U 20006AF  23038.04968357  .00010354  00000-0  71253-3 0  9999
2 45073  53.0542 284.3049 0001157  97.7918 262.3202 15.06423871166923
1 45073U 20006AF  23038.91219757 -.00000462  00000-0 -12177-4 0  9990
2 45073  53.0523 280.4319 0000765  97.8390 262.2686 15.06393738167056
1 45073U 20006AF  23039.90740672  .00002564  00000-0  19098-3 0  9996
2 45073  53.0515 275.9629 0001025 100.4127 259.6977 15.06395181167203
1 45073U 20006AF  23040.04009951  .00006860  00000-0  47892-3 0  9997
2 45073  53.0522 275.3674 0001183  91.9705 268.1420 15.06403207167225
1 45073U 20006AF  23040.90261211  .00004386  00000-0  31315-3 0  9995
2 45073  53.0521 271.4934 0001144  98.7340 261.3778 15.06398799167351
1 45073U 20006AF  23041.03530416  .00007189  00000-0  50089-3 0  9999
2 45073  53.0535 270.8976 0001288 115.6700 244.4423 15.06407155167371
1 45073U 20006AF  23041.76512073  .00003683  00000-0  26600-3 0  9995
2 45073  53.0520 267.6244 0001173  98.6858 261.4263 15.06404880167489
1 45073U 20006AF  23042.56128358 -.00001127  00000-0 -56795-4 0  9995
2 45073  53.0524 264.0485 0001240 112.8307 247.2813 15.06394621167602
1 45073U 20006AF  23042.89302176 -.00000516  00000-0 -15785-4 0  9998
2 45073  53.0540 262.5606 0000933  93.0731 267.0365 15.06396559167656
1 45073U 20006AF  23043.55649352  .00000255  00000-0  36020-4 0  9995
2 45073  53.0530 259.5825 0001123 102.7421 257.3694 15.06391511167751
1 45073U 20006AF  23044.35265713  .00004809  00000-0  34166-3 0  9996
2 45073  53.0527 256.0086 0001256 131.1457 228.9640 15.06382686167871
1 45073U 20006AF  23045.34786097  .00002329  00000-0  17521-3 0  9990
2 45073  53.0529 251.5406 0001080  91.3172 268.7940 15.06392971168026
1 45073U 20006AF  23045.61324720  .00001604  00000-0  12658-3 0  9992
2 45073  53.0525 250.3486 0001127  96.4118 263.6999 15.06395799168068
1 45073U 20006AF  23046.54210074  .00000797  00000-0  72373-4 0  9994
2 45073  53.0523 246.1775 0001121  83.0128 277.0989 15.06400853168209
1 45073U 20006AF  23046.80748890  .00002747  00000-0  20322-3 0  9998
2 45073  53.0524 244.9861 0001024  86.5099 273.6007 15.06396350168242
1 45073U 20006AF  23047.53730281  .00000890  00000-0  78653-4 0  9992
2 45073  53.0520 241.7102 0001172  84.9986 275.1136 15.06399820168359
1 45073U 20006AF  23047.80268631  .00001433  00000-0  11506-3 0  9994
2 45073  53.0524 240.5181 0001146  91.4132 268.6988 15.06403873168394
1 45073U 20006AF  23048.53250504  .00000680  00000-0  64553-4 0  9999
2 45073  53.0522 237.2414 0001090  89.2404 270.8710 15.06395567168500
1 45073U 20006AF  23048.79789203  .00000788  00000-0  71765-4 0  9992
2 45073  53.0533 236.0515 0001013  83.8737 276.2368 15.06395869168543
1 45073U 20006AF  23050.19117700 -.00000003  00000-0  18654-4 0  9995
2 45073  53.0537 229.7962 0001031  87.9863 272.1244 15.06397636168752
1 45073U 20006AF  23051.18638176  .00001067  00000-0  90522-4 0  9994
2 45073  53.0537 225.3285 0001058  86.6886 273.4224 15.06395327168906
1 45073U 20006AF  23051.84984491  .00001585  00000-0  12527-3 0  9994
2 45073  53.0532 222.3504 0001067  93.7974 266.3137 15.06402483169007
